[{"OBJECT_NAME":"TIANMU-1 08","OBJECT_ID":"2023-101B","EPOCH":"2026-03-07T00:03:25.475616","MEAN_MOTION":15.29204229,"ECCENTRICITY":0.00063808,"INCLINATION":97.2717,"RA_OF_ASC_NODE":118.7901,"ARG_OF_PERICENTER":134.2174,"MEAN_ANOMALY":225.9592,"EPHEMERIS_TYPE":0,"CLASSIFICATION_TYPE":"U","NORAD_CAT_ID":57400,"ELEMENT_SET_NO":999,"REV_AT_EPOCH":14602,"BSTAR":1.4774513e-5,"MEAN_MOTION_DOT":3.46e-6,"MEAN_MOTION_DDOT":0},{"OBJECT_NAME":"STARLINK-31005","OBJECT_ID":"2023-186P","EPOCH":"2026-03-09T22:00:01.999584","MEAN_MOTION":15.27555583,"ECCENTRICITY":0.00014005,"INCLINATION":43.0009,"RA_OF_ASC_NODE":62.4695,"ARG_OF_PERICENTER":258.7988,"MEAN_ANOMALY":317.6431,"EPHEMERIS_TYPE":0,"CLASSIFICATION_TYPE":"U","NORAD_CAT_ID":58486,"ELEMENT_SET_NO":999,"REV_AT_EPOCH":578,"BSTAR":0.0014984727,"MEAN_MOTION_DOT":0.00041172,"MEAN_MOTION_DDOT":0}]
